{"fetched_at":"2026-07-14T17:40:25.184Z","source":"https://celestrak.org/NORAD/elements/gp.php?GROUP=planet&FORMAT=JSON","constellation":"superdove","records":[{"OBJECT_NAME":"FLOCK 4G-33","OBJECT_ID":"2025-009CE","EPOCH":"2026-07-13T17:54:25.081632","CLASSIFICATION_TYPE":"U","MEAN_MOTION":15.25788605,"ECCENTRICITY":0.0004518,"INCLINATION":97.3946,"RA_OF_ASC_NODE":274.3161,"ARG_OF_PERICENTER":220.0659,"MEAN_ANOMALY":140.0247,"EPHEMERIS_TYPE":0,"NORAD_CAT_ID":62685,"ELEMENT_SET_NO":999,"REV_AT_EPOCH":8285,"BSTAR":0.0001387,"MEAN_MOTION_DOT":0.00003471,"MEAN_MOTION_DDOT":0},{"OBJECT_NAME":"FLOCK 4H-1","OBJECT_ID":"2025-276AQ","EPOCH":"2026-07-14T03:49:01.399872","CLASSIFICATION_TYPE":"U","MEAN_MOTION":15.20844158,"ECCENTRICITY":0.0001885,"INCLINATION":97.4173,"RA_OF_ASC_NODE":268.4216,"ARG_OF_PERICENTER":175.3907,"MEAN_ANOMALY":184.7346,"EPHEMERIS_TYPE":0,"NORAD_CAT_ID":66704,"ELEMENT_SET_NO":999,"REV_AT_EPOCH":3453,"BSTAR":0.00017924,"MEAN_MOTION_DOT":0.00003888,"MEAN_MOTION_DDOT":0},{"OBJECT_NAME":"FLOCK 4H-2","OBJECT_ID":"2025-276AR","EPOCH":"2026-07-14T04:46:08.459328","CLASSIFICATION_TYPE":"U","MEAN_MOTION":15.21115696,"ECCENTRICITY":0.0001404,"INCLINATION":97.417,"RA_OF_ASC_NODE":268.5088,"ARG_OF_PERICENTER":156.5901,"MEAN_ANOMALY":203.5398,"EPHEMERIS_TYPE":0,"NORAD_CAT_ID":66705,"ELEMENT_SET_NO":999,"REV_AT_EPOCH":3454,"BSTAR":0.00017331,"MEAN_MOTION_DOT":0.00003787,"MEAN_MOTION_DDOT":0},{"OBJECT_NAME":"FLOCK 4H-3","OBJECT_ID":"2025-276AS","EPOCH":"2026-07-14T04:30:57.252096","CLASSIFICATION_TYPE":"U","MEAN_MOTION":15.20236292,"ECCENTRICITY":0.0002455,"INCLINATION":97.424,"RA_OF_ASC_NODE":268.4235,"ARG_OF_PERICENTER":254.4613,"MEAN_ANOMALY":105.6351,"EPHEMERIS_TYPE":0,"NORAD_CAT_ID":66706,"ELEMENT_SET_NO":999,"REV_AT_EPOCH":3452,"BSTAR":0.00016545,"MEAN_MOTION_DOT":0.00003519,"MEAN_MOTION_DDOT":0},{"OBJECT_NAME":"FLOCK 4H-4","OBJECT_ID":"2025-276AT","EPOCH":"2026-07-14T03:47:54.158208","CLASSIFICATION_TYPE":"U","MEAN_MOTION":15.20027062,"ECCENTRICITY":0.0003068,"INCLINATION":97.4222,"RA_OF_ASC_NODE":268.2617,"ARG_OF_PERICENTER":260.3477,"MEAN_ANOMALY":99.7412,"EPHEMERIS_TYPE":0,"NORAD_CAT_ID":66707,"ELEMENT_SET_NO":999,"REV_AT_EPOCH":3451,"BSTAR":0.00018828,"MEAN_MOTION_DOT":0.0000399,"MEAN_MOTION_DDOT":0},{"OBJECT_NAME":"FLOCK 4H-5","OBJECT_ID":"2025-276AU","EPOCH":"2026-07-14T03:37:56.063712","CLASSIFICATION_TYPE":"U","MEAN_MOTION":15.20894897,"ECCENTRICITY":0.0001297,"INCLINATION":97.4173,"RA_OF_ASC_NODE":268.435,"ARG_OF_PERICENTER":134.7979,"MEAN_ANOMALY":225.3362,"EPHEMERIS_TYPE":0,"NORAD_CAT_ID":66708,"ELEMENT_SET_NO":999,"REV_AT_EPOCH":3453,"BSTAR":0.00016869,"MEAN_MOTION_DOT":0.0000366,"MEAN_MOTION_DDOT":0},{"OBJECT_NAME":"FLOCK 4H-6","OBJECT_ID":"2025-276AV","EPOCH":"2026-07-14T04:43:50.075904","CLASSIFICATION_TYPE":"U","MEAN_MOTION":15.20596872,"ECCENTRICITY":0.0002447,"INCLINATION":97.4224,"RA_OF_ASC_NODE":268.5232,"ARG_OF_PERICENTER":209.2352,"MEAN_ANOMALY":150.8746,"EPHEMERIS_TYPE":0,"NORAD_CAT_ID":66709,"ELEMENT_SET_NO":999,"REV_AT_EPOCH":3453,"BSTAR":0.000165,"MEAN_MOTION_DOT":0.00003547,"MEAN_MOTION_DDOT":0},{"OBJECT_NAME":"FLOCK 4H-7","OBJECT_ID":"2025-276AW","EPOCH":"2026-07-14T04:17:23.777088","CLASSIFICATION_TYPE":"U","MEAN_MOTION":15.2037177,"ECCENTRICITY":0.0000736,"INCLINATION":97.4183,"RA_OF_ASC_NODE":268.2636,"ARG_OF_PERICENTER":311.9729,"MEAN_ANOMALY":48.1443,"EPHEMERIS_TYPE":0,"NORAD_CAT_ID":66710,"ELEMENT_SET_NO":999,"REV_AT_EPOCH":3452,"BSTAR":0.00017488,"MEAN_MOTION_DOT":0.00003739,"MEAN_MOTION_DDOT":0},{"OBJECT_NAME":"FLOCK 4H-8","OBJECT_ID":"2025-276AX","EPOCH":"2026-07-14T04:04:23.179008","CLASSIFICATION_TYPE":"U","MEAN_MOTION":15.204793,"ECCENTRICITY":0.000186,"INCLINATION":97.4221,"RA_OF_ASC_NODE":268.4038,"ARG_OF_PERICENTER":277.7897,"MEAN_ANOMALY":82.3127,"EPHEMERIS_TYPE":0,"NORAD_CAT_ID":66711,"ELEMENT_SET_NO":999,"REV_AT_EPOCH":3452,"BSTAR":0.00017983,"MEAN_MOTION_DOT":0.00003859,"MEAN_MOTION_DDOT":0},{"OBJECT_NAME":"FLOCK 4H-9","OBJECT_ID":"2025-276AY","EPOCH":"2026-07-14T04:24:33.450336","CLASSIFICATION_TYPE":"U","MEAN_MOTION":15.20779301,"ECCENTRICITY":0.0002357,"INCLINATION":97.4212,"RA_OF_ASC_NODE":268.5117,"ARG_OF_PERICENTER":218.8955,"MEAN_ANOMALY":141.2111,"EPHEMERIS_TYPE":0,"NORAD_CAT_ID":66712,"ELEMENT_SET_NO":999,"REV_AT_EPOCH":3453,"BSTAR":0.00017586,"MEAN_MOTION_DOT":0.00003806,"MEAN_MOTION_DDOT":0},{"OBJECT_NAME":"FLOCK 4H-10","OBJECT_ID":"2025-276AZ","EPOCH":"2026-07-14T03:25:05.760192","CLASSIFICATION_TYPE":"U","MEAN_MOTION":15.20155438,"ECCENTRICITY":0.0002944,"INCLINATION":97.4189,"RA_OF_ASC_NODE":268.1819,"ARG_OF_PERICENTER":260.3453,"MEAN_ANOMALY":99.7449,"EPHEMERIS_TYPE":0,"NORAD_CAT_ID":66713,"ELEMENT_SET_NO":999,"REV_AT_EPOCH":3451,"BSTAR":0.00020418,"MEAN_MOTION_DOT":0.00004349,"MEAN_MOTION_DDOT":0},{"OBJECT_NAME":"FLOCK 4H-11","OBJECT_ID":"2025-276BA","EPOCH":"2026-07-14T04:04:21.432000","CLASSIFICATION_TYPE":"U","MEAN_MOTION":15.23312053,"ECCENTRICITY":0.0001401,"INCLINATION":97.4195,"RA_OF_ASC_NODE":268.797,"ARG_OF_PERICENTER":250.869,"MEAN_ANOMALY":109.2396,"EPHEMERIS_TYPE":0,"NORAD_CAT_ID":66714,"ELEMENT_SET_NO":999,"REV_AT_EPOCH":3455,"BSTAR":0.00035063,"MEAN_MOTION_DOT":0.00008253,"MEAN_MOTION_DDOT":0},{"OBJECT_NAME":"FLOCK 4H-12","OBJECT_ID":"2025-276BB","EPOCH":"2026-07-14T04:05:56.109120","CLASSIFICATION_TYPE":"U","MEAN_MOTION":15.20807608,"ECCENTRICITY":0.0001798,"INCLINATION":97.4186,"RA_OF_ASC_NODE":268.4355,"ARG_OF_PERICENTER":184.0666,"MEAN_ANOMALY":176.0555,"EPHEMERIS_TYPE":0,"NORAD_CAT_ID":66715,"ELEMENT_SET_NO":999,"REV_AT_EPOCH":3484,"BSTAR":0.00018768,"MEAN_MOTION_DOT":0.00004069,"MEAN_MOTION_DDOT":0},{"OBJECT_NAME":"FLOCK 4H-13","OBJECT_ID":"2025-276BC","EPOCH":"2026-07-14T03:23:42.671040","CLASSIFICATION_TYPE":"U","MEAN_MOTION":15.20908938,"ECCENTRICITY":0.0001825,"INCLINATION":97.4218,"RA_OF_ASC_NODE":268.5795,"ARG_OF_PERICENTER":144.8256,"MEAN_ANOMALY":215.3101,"EPHEMERIS_TYPE":0,"NORAD_CAT_ID":66716,"ELEMENT_SET_NO":999,"REV_AT_EPOCH":3453,"BSTAR":0.000206,"MEAN_MOTION_DOT":0.00004487,"MEAN_MOTION_DDOT":0},{"OBJECT_NAME":"FLOCK 4H-14","OBJECT_ID":"2025-276BD","EPOCH":"2026-07-14T04:01:55.561152","CLASSIFICATION_TYPE":"U","MEAN_MOTION":15.2135658,"ECCENTRICITY":0.0001737,"INCLINATION":97.4202,"RA_OF_ASC_NODE":268.6518,"ARG_OF_PERICENTER":142.6489,"MEAN_ANOMALY":217.4867,"EPHEMERIS_TYPE":0,"NORAD_CAT_ID":66717,"ELEMENT_SET_NO":999,"REV_AT_EPOCH":3379,"BSTAR":0.00017685,"MEAN_MOTION_DOT":0.00003893,"MEAN_MOTION_DDOT":0},{"OBJECT_NAME":"FLOCK 4H-15","OBJECT_ID":"2025-276BE","EPOCH":"2026-07-14T04:13:43.751712","CLASSIFICATION_TYPE":"U","MEAN_MOTION":15.19875042,"ECCENTRICITY":0.0002675,"INCLINATION":97.4218,"RA_OF_ASC_NODE":268.2205,"ARG_OF_PERICENTER":281.5889,"MEAN_ANOMALY":78.5045,"EPHEMERIS_TYPE":0,"NORAD_CAT_ID":66718,"ELEMENT_SET_NO":999,"REV_AT_EPOCH":3451,"BSTAR":0.00017684,"MEAN_MOTION_DOT":0.00003727,"MEAN_MOTION_DDOT":0}]}
