FLOCK 4G-33             
1 62685U 25009CE  26194.74612363  .00003471  00000+0  13870-3 0  9993
2 62685  97.3946 274.3161 0004518 220.0659 140.0247 15.25788605 82851
FLOCK 4H-1              
1 66704U 25276AQ  26195.15904398  .00003888  00000+0  17924-3 0  9999
2 66704  97.4173 268.4216 0001885 175.3907 184.7346 15.20844158 34535
FLOCK 4H-2              
1 66705U 25276AR  26195.19870902  .00003787  00000+0  17331-3 0  9997
2 66705  97.4170 268.5088 0001404 156.5901 203.5398 15.21115696 34540
FLOCK 4H-3              
1 66706U 25276AS  26195.18816264  .00003519  00000+0  16545-3 0  9997
2 66706  97.4240 268.4235 0002455 254.4613 105.6351 15.20236292 34521
FLOCK 4H-4              
1 66707U 25276AT  26195.15826572  .00003990  00000+0  18828-3 0  9997
2 66707  97.4222 268.2617 0003068 260.3477  99.7412 15.20027062 34512
FLOCK 4H-5              
1 66708U 25276AU  26195.15134333  .00003660  00000+0  16869-3 0  9992
2 66708  97.4173 268.4350 0001297 134.7979 225.3362 15.20894897 34538
FLOCK 4H-6              
1 66709U 25276AV  26195.19710736  .00003547  00000+0  16500-3 0  9990
2 66709  97.4224 268.5232 0002447 209.2352 150.8746 15.20596872 34537
FLOCK 4H-7              
1 66710U 25276AW  26195.17874742  .00003739  00000+0  17488-3 0  9997
2 66710  97.4183 268.2636 0000736 311.9729  48.1443 15.20371770 34526
FLOCK 4H-8              
1 66711U 25276AX  26195.16971272  .00003859  00000+0  17983-3 0  9996
2 66711  97.4221 268.4038 0001860 277.7897  82.3127 15.20479300 34529
FLOCK 4H-9              
1 66712U 25276AY  26195.18372049  .00003806  00000+0  17586-3 0  9997
2 66712  97.4212 268.5117 0002357 218.8955 141.2111 15.20779301 34535
FLOCK 4H-10             
1 66713U 25276AZ  26195.14242778  .00004349  00000+0  20418-3 0  9990
2 66713  97.4189 268.1819 0002944 260.3453  99.7449 15.20155438 34519
FLOCK 4H-11             
1 66714U 25276BA  26195.16969250  .00008253  00000+0  35063-3 0  9994
2 66714  97.4195 268.7970 0001401 250.8690 109.2396 15.23312053 34558
FLOCK 4H-12             
1 66715U 25276BB  26195.17078830  .00004069  00000+0  18768-3 0  9995
2 66715  97.4186 268.4355 0001798 184.0666 176.0555 15.20807608 34846
FLOCK 4H-13             
1 66716U 25276BC  26195.14146610  .00004487  00000+0  20600-3 0  9997
2 66716  97.4218 268.5795 0001825 144.8256 215.3101 15.20908938 34530
FLOCK 4H-14             
1 66717U 25276BD  26195.16800418  .00003893  00000+0  17685-3 0  9992
2 66717  97.4202 268.6518 0001737 142.6489 217.4867 15.21356580 33794
FLOCK 4H-15             
1 66718U 25276BE  26195.17620083  .00003727  00000+0  17684-3 0  9997
2 66718  97.4218 268.2205 0002675 281.5889  78.5045 15.19875042 34511
